{"type":"FeatureCollection","features":[{"type":"Feature","properties":{"featurecla":"Admin-0 country","scalerank":1,"labelrank":5,"sovereignt":"Republic of Serbia","sov_a3":"SRB","adm0_dif":0,"level":2,"type":"Sovereign country","tlc":1,"admin":"Republic of Serbia","adm0_a3":"SRB","geou_dif":0,"geounit":"Republic of Serbia","gu_a3":"SRB","su_dif":0,"subunit":"Republic of Serbia","su_a3":"SRB","brk_diff":0,"name":"Serbia","name_long":"Serbia","brk_a3":"SRB","brk_name":"Serbia","brk_group":null,"abbrev":"Serb.","postal":"RS","formal_en":"Republic of Serbia","formal_fr":null,"name_ciawf":"Serbia","note_adm0":null,"note_brk":null,"name_sort":"Serbia","name_alt":null,"mapcolor7":3,"mapcolor8":3,"mapcolor9":2,"mapcolor13":10,"pop_est":6944975,"pop_rank":13,"pop_year":2019,"gdp_md":51475,"gdp_year":2019,"economy":"6. Developing region","income_grp":"3. Upper middle income","fips_10":"RI","iso_a2":"RS","iso_a2_eh":"RS","iso_a3":"SRB","iso_a3_eh":"SRB","iso_n3":688,"iso_n3_eh":688,"un_a3":688,"wb_a2":"YF","wb_a3":"SRB","woe_id":-90,"woe_id_eh":20069818,"woe_note":"Expired WOE also contains Kosovo.","adm0_iso":"SRB","adm0_diff":null,"adm0_tlc":"SRB","adm0_a3_us":"SRB","adm0_a3_fr":"SRB","adm0_a3_ru":"SRB","adm0_a3_es":"SRB","adm0_a3_cn":"SRB","adm0_a3_tw":"SRB","adm0_a3_in":"SRB","adm0_a3_np":"SRB","adm0_a3_pk":"SRB","adm0_a3_de":"SRB","adm0_a3_gb":"SRB","adm0_a3_br":"SRB","adm0_a3_il":"SRB","adm0_a3_ps":"SRB","adm0_a3_sa":"SRB","adm0_a3_eg":"SRB","adm0_a3_ma":"SRB","adm0_a3_pt":"SRB","adm0_a3_ar":"SRB","adm0_a3_jp":"SRB","adm0_a3_ko":"SRB","adm0_a3_vn":"SRB","adm0_a3_tr":"SRB","adm0_a3_id":"SRB","adm0_a3_pl":"SRB","adm0_a3_gr":"SRB","adm0_a3_it":"SRB","adm0_a3_nl":"SRB","adm0_a3_se":"SRB","adm0_a3_bd":"SRB","adm0_a3_ua":"SRB","adm0_a3_un":-99,"adm0_a3_wb":-99,"continent":"Europe","region_un":"Europe","subregion":"Southern Europe","region_wb":"Europe & Central Asia","name_len":6,"long_len":6,"abbrev_len":5,"tiny":-99,"homepart":1,"min_zoom":0,"min_label":4,"max_label":7,"label_x":20.787989,"label_y":44.189919,"ne_id":1159321267,"wikidataid":"Q403","name_ar":"صربيا","name_bn":"সার্বিয়া","name_de":"Serbien","name_en":"Serbia","name_es":"Serbia","name_fa":"صربستان","name_fr":"Serbie","name_el":"Σερβία","name_he":"סרביה","name_hi":"सर्बिया","name_hu":"Szerbia","name_id":"Serbia","name_it":"Serbia","name_ja":"セルビア","name_ko":"세르비아","name_nl":"Servië","name_pl":"Serbia","name_pt":"Sérvia","name_ru":"Сербия","name_sv":"Serbien","name_tr":"Sırbistan","name_uk":"Сербія","name_ur":"سربیا","name_vi":"Serbia","name_zh":"塞尔维亚","name_zht":"塞爾維亞","fclass_iso":"Admin-0 country","tlc_diff":null,"fclass_tlc":"Admin-0 country","fclass_us":null,"fclass_fr":null,"fclass_ru":null,"fclass_es":null,"fclass_cn":null,"fclass_tw":null,"fclass_in":null,"fclass_np":null,"fclass_pk":null,"fclass_de":null,"fclass_gb":null,"fclass_br":null,"fclass_il":null,"fclass_ps":null,"fclass_sa":null,"fclass_eg":null,"fclass_ma":null,"fclass_pt":null,"fclass_ar":null,"fclass_jp":null,"fclass_ko":null,"fclass_vn":null,"fclass_tr":null,"fclass_id":null,"fclass_pl":null,"fclass_gr":null,"fclass_it":null,"fclass_nl":null,"fclass_se":null,"fclass_bd":null,"fclass_ua":null,"filename":"SRB.geojson"},"geometry":{"type":"Polygon","coordinates":[[[21.36005859375001,44.82666015625],[21.52314453125001,44.790087890624996],[21.597070312500023,44.755419921874996],[21.636132812500023,44.71044921875],[21.740234375,44.6806640625],[21.909277343750006,44.66611328125],[22.026953125,44.619873046875],[22.093066406250017,44.541943359375],[22.200976562500017,44.560693359374994],[22.350683593750006,44.676123046875],[22.49765625,44.70625],[22.64208984375,44.6509765625],[22.72089843750001,44.605517578124996],[22.734375,44.569921875],[22.70078125,44.555517578125],[22.6201171875,44.562353515625],[22.554003906250017,44.540332031249996],[22.502343750000023,44.489599609375],[22.494531250000023,44.435449218749994],[22.530664062500023,44.377978515624996],[22.581835937500017,44.338330078125],[22.64794921875,44.316455078124996],[22.68330078125001,44.286474609375],[22.687890625000023,44.248291015625],[22.705078125,44.23779296875],[22.66748046875,44.22021484375],[22.6265625,44.194091796875],[22.603417968750023,44.148583984374994],[22.597460937500017,44.07529296875],[22.469042968750017,44.018017578125],[22.420800781250023,44.007421875],[22.399023437500006,43.96953125],[22.36542968750001,43.862109375],[22.36962890625,43.781298828124996],[22.38691406250001,43.740136718749994],[22.394824218750017,43.706640625],[22.436328125000017,43.665478515625],[22.47412109375,43.60224609375],[22.499121093750006,43.518847656249996],[22.554589843750023,43.454492187499994],[22.69697265625001,43.391064453125],[22.767578125,43.354150390624994],[22.819726562500023,43.300732421875],[22.85957031250001,43.25234375],[22.976855468750017,43.18798828125],[22.96796875000001,43.142041015625],[22.942285156250023,43.097070312499994],[22.91523437500001,43.075976562499996],[22.856835937500023,43.01826171875],[22.799902343750006,42.985742187499994],[22.706152343750006,42.883935546874994],[22.55810546875,42.878466796874996],[22.522753906250017,42.8703125],[22.466796875,42.84248046875],[22.439257812500017,42.791650390624994],[22.465625,42.75078125],[22.463281250000023,42.70947265625],[22.43623046875001,42.6291015625],[22.472070312500023,42.543310546875],[22.524218750000017,42.50390625],[22.53242187500001,42.481201171875],[22.523535156250006,42.440966796874996],[22.445703125000023,42.359130859375],[22.42207031250001,42.328857421875],[22.344042968750017,42.31396484375],[22.3173828125,42.321728515625],[22.27705078125001,42.349853515625],[22.23974609375,42.358154296875],[22.14667968750001,42.325],[22.052050781250017,42.304638671875],[21.9775390625,42.320068359375],[21.904101562500017,42.322070312499996],[21.85302734375,42.308398437499996],[21.81464843750001,42.303125],[21.7392578125,42.267724609374994],[21.618261718750006,42.242138671875],[21.5625,42.247509765625],[21.541601562500006,42.280810546874996],[21.518945312500023,42.328417968749996],[21.52998046875001,42.35],[21.60986328125,42.387451171875],[21.619042968750023,42.423242187499994],[21.73066406250001,42.595458984375],[21.75214843750001,42.651513671874994],[21.7529296875,42.669824218749994],[21.72382812500001,42.681982421875],[21.6625,42.681494140625],[21.390625,42.751416015625],[21.40302734375001,42.83154296875],[21.323144531250023,42.87470703125],[21.237109375000017,42.913232421874994],[21.22265625,42.956201171874994],[21.127050781250006,43.043017578124996],[21.057031250000023,43.091699218749994],[20.967675781250023,43.116015625],[20.890722656250006,43.151660156249996],[20.84443359375001,43.1734375],[20.823828125,43.21396484375],[20.823828125,43.237939453124994],[20.800585937500017,43.261083984375],[20.76337890625001,43.25859375],[20.700585937500023,43.226367187499996],[20.623144531250006,43.198632812499994],[20.609667968750017,43.17841796875],[20.637597656250023,43.13037109375],[20.657617187500023,43.099853515625],[20.648535156250006,43.070947265624994],[20.6240234375,43.0341796875],[20.47509765625,42.953027343749994],[20.458398437500023,42.924560546875],[20.48681640625,42.879052734374994],[20.468847656250006,42.85791015625],[20.344335937500006,42.827929687499996],[20.34765625,42.852783203125],[20.339941406250006,42.892871093749996],[20.268457031250023,42.935449218749994],[20.167871093750023,42.968505859375],[19.94404296875001,43.081640625],[19.858007812500006,43.096533203125],[19.781152343750023,43.109765625],[19.670996093750006,43.163964843749994],[19.61445312500001,43.1734375],[19.551562500000017,43.212255859375],[19.414648437500006,43.342822265624996],[19.298242187500023,43.413964843749994],[19.21875,43.449951171875],[19.19648437500001,43.485009765624994],[19.19160156250001,43.521044921874996],[19.1943359375,43.53330078125],[19.254492187500006,43.584375],[19.30078125,43.591796875],[19.3603515625,43.59345703125],[19.39960937500001,43.567578125],[19.451269531250006,43.562060546874996],[19.47998046875,43.595166015625],[19.4951171875,43.642871093749996],[19.488183593750023,43.703564453125],[19.364062500000017,43.844775390624996],[19.257226562500023,43.943310546875],[19.245019531250023,43.9650390625],[19.26806640625,43.983447265624996],[19.305273437500006,43.993359375],[19.34521484375,43.985107421875],[19.44941406250001,43.97802734375],[19.54951171875001,43.987109375],[19.58369140625001,44.011083984375],[19.583789062500017,44.04345703125],[19.547167968750017,44.073486328125],[19.43017578125,44.1544921875],[19.3388671875,44.225830078125],[19.231542968750006,44.280566406249996],[19.15185546875,44.302539062499996],[19.128320312500023,44.3302734375],[19.118457031250017,44.3599609375],[19.127343750000023,44.41455078125],[19.132421875,44.483789062499994],[19.1513671875,44.52734375],[19.22314453125,44.6095703125],[19.291894531250023,44.69677734375],[19.33447265625,44.780664062499994],[19.356835937500023,44.858544921874994],[19.3486328125,44.880908203124996],[19.31269531250001,44.8974609375],[19.23681640625,44.9142578125],[19.13154296875001,44.899609375],[19.042089843750006,44.871337890625],[19.007128906250017,44.869189453124996],[18.995507812500023,44.90400390625],[19.009570312500017,44.919384765625],[19.03759765625,44.917529296874996],[19.060546875,44.910986328125],[19.085253906250017,44.9267578125],[19.1,44.973779296874994],[19.062890625000023,45.13720703125],[19.129687500000017,45.151708984375],[19.130761718750023,45.17548828125],[19.13691406250001,45.196240234375],[19.205957031250023,45.167773437499996],[19.303027343750017,45.167285156249996],[19.388085937500023,45.172998046874994],[19.400976562500006,45.1890625],[19.4,45.2125],[19.38232421875,45.230615234374994],[19.35224609375001,45.245410156249996],[19.33027343750001,45.26806640625],[19.272851562500023,45.277978515624994],[19.093066406250017,45.3369140625],[19.004687500000017,45.39951171875],[19.007617187500017,45.4658203125],[19.033300781250006,45.502197265625],[19.064257812500017,45.514990234375],[19.055078125000023,45.527246093749994],[18.953710937500006,45.558007812499994],[18.917871093750023,45.600830078125],[18.947265625,45.655810546874996],[18.89453125,45.76708984375],[18.83906250000001,45.835742187499996],[18.8935546875,45.865527343749996],[18.90107421875001,45.907617187499994],[18.905371093750006,45.93173828125],[18.927832031250006,45.931396484375],[19.015722656250006,45.959716796875],[19.047656250000017,45.982666015625],[19.066210937500017,46.009521484375],[19.087304687500023,46.016162109374996],[19.146289062500017,45.98701171875],[19.208398437500023,45.984423828124996],[19.278125,46.002880859375],[19.33027343750001,46.028515625],[19.392871093750017,46.0498046875],[19.421289062500023,46.064453125],[19.45751953125,46.087353515625],[19.53076171875,46.155175781249994],[19.61347656250001,46.169189453125],[19.724511718750023,46.151904296874996],[19.84443359375001,46.145898437499994],[19.93408203125,46.161474609375],[20.161425781250017,46.141894531249996],[20.21015625000001,46.126025390624996],[20.241796875,46.10859375],[20.301367187500006,46.050683593749994],[20.35859375000001,45.975488281249994],[20.43798828125,45.940771484375],[20.532617187500023,45.89951171875],[20.581152343750006,45.869482421875],[20.652734375000023,45.77939453125],[20.709277343750017,45.735253906249994],[20.727832031250017,45.73740234375],[20.746875,45.748974609375],[20.760156250000023,45.758105468749996],[20.775,45.749804687499996],[20.775781250000023,45.722509765625],[20.779296875,45.662011718749994],[20.76582031250001,45.597460937499996],[20.786035156250023,45.536474609375],[20.786523437500023,45.517480468749994],[20.7724609375,45.50009765625],[20.774218750000017,45.484423828124996],[20.794042968750006,45.46787109375],[20.87080078125001,45.427539062499996],[20.941796875000023,45.36533203125],[21.023828125000023,45.321533203125],[21.099902343750017,45.2935546875],[21.147851562500023,45.291748046875],[21.226464843750023,45.24130859375],[21.381738281250023,45.205078125],[21.431445312500017,45.192529296874994],[21.465429687500006,45.171875],[21.490234375,45.147900390625],[21.491796875,45.122265625],[21.467871093750006,45.10986328125],[21.434472656250023,45.075146484375],[21.420703125000017,45.032958984375],[21.395898437500023,45.022216796875],[21.37109375,45.021386718749994],[21.352929687500023,45.008984375],[21.35703125,44.990771484374996],[21.377734375000017,44.9734375],[21.409960937500017,44.95771484375],[21.471972656250017,44.9419921875],[21.533203125,44.918847656249994],[21.532324218750006,44.900683593749996],[21.519921875000023,44.880810546875],[21.442187500000017,44.873388671875],[21.384375,44.870068359375],[21.35791015625,44.86181640625],[21.36005859375001,44.82666015625]]]}},{"type":"Feature","properties":{"featurecla":"Admin-0 country","scalerank":1,"labelrank":6,"sovereignt":"Montenegro","sov_a3":"MNE","adm0_dif":0,"level":2,"type":"Sovereign country","tlc":1,"admin":"Montenegro","adm0_a3":"MNE","geou_dif":0,"geounit":"Montenegro","gu_a3":"MNE","su_dif":0,"subunit":"Montenegro","su_a3":"MNE","brk_diff":0,"name":"Montenegro","name_long":"Montenegro","brk_a3":"MNE","brk_name":"Montenegro","brk_group":null,"abbrev":"Mont.","postal":"ME","formal_en":"Montenegro","formal_fr":null,"name_ciawf":"Montenegro","note_adm0":null,"note_brk":null,"name_sort":"Montenegro","name_alt":null,"mapcolor7":4,"mapcolor8":1,"mapcolor9":4,"mapcolor13":5,"pop_est":622137,"pop_rank":11,"pop_year":2019,"gdp_md":5542,"gdp_year":2019,"economy":"6. Developing region","income_grp":"3. Upper middle income","fips_10":"MJ","iso_a2":"ME","iso_a2_eh":"ME","iso_a3":"MNE","iso_a3_eh":"MNE","iso_n3":499,"iso_n3_eh":499,"un_a3":499,"wb_a2":"ME","wb_a3":"MNE","woe_id":20069817,"woe_id_eh":20069817,"woe_note":"Exact WOE match as country","adm0_iso":"MNE","adm0_diff":null,"adm0_tlc":"MNE","adm0_a3_us":"MNE","adm0_a3_fr":"MNE","adm0_a3_ru":"MNE","adm0_a3_es":"MNE","adm0_a3_cn":"MNE","adm0_a3_tw":"MNE","adm0_a3_in":"MNE","adm0_a3_np":"MNE","adm0_a3_pk":"MNE","adm0_a3_de":"MNE","adm0_a3_gb":"MNE","adm0_a3_br":"MNE","adm0_a3_il":"MNE","adm0_a3_ps":"MNE","adm0_a3_sa":"MNE","adm0_a3_eg":"MNE","adm0_a3_ma":"MNE","adm0_a3_pt":"MNE","adm0_a3_ar":"MNE","adm0_a3_jp":"MNE","adm0_a3_ko":"MNE","adm0_a3_vn":"MNE","adm0_a3_tr":"MNE","adm0_a3_id":"MNE","adm0_a3_pl":"MNE","adm0_a3_gr":"MNE","adm0_a3_it":"MNE","adm0_a3_nl":"MNE","adm0_a3_se":"MNE","adm0_a3_bd":"MNE","adm0_a3_ua":"MNE","adm0_a3_un":-99,"adm0_a3_wb":-99,"continent":"Europe","region_un":"Europe","subregion":"Southern Europe","region_wb":"Europe & Central Asia","name_len":10,"long_len":10,"abbrev_len":5,"tiny":-99,"homepart":1,"min_zoom":0,"min_label":5,"max_label":10,"label_x":19.143727,"label_y":42.803101,"ne_id":1159321069,"wikidataid":"Q236","name_ar":"الجبل الأسود","name_bn":"মন্টিনিগ্রো","name_de":"Montenegro","name_en":"Montenegro","name_es":"Montenegro","name_fa":"مونتهنگرو","name_fr":"Monténégro","name_el":"Μαυροβούνιο","name_he":"מונטנגרו","name_hi":"मॉन्टेनीग्रो","name_hu":"Montenegró","name_id":"Montenegro","name_it":"Montenegro","name_ja":"モンテネグロ","name_ko":"몬테네그로","name_nl":"Montenegro","name_pl":"Czarnogóra","name_pt":"Montenegro","name_ru":"Черногория","name_sv":"Montenegro","name_tr":"Karadağ","name_uk":"Чорногорія","name_ur":"مونٹینیگرو","name_vi":"Montenegro","name_zh":"黑山","name_zht":"蒙特內哥羅","fclass_iso":"Admin-0 country","tlc_diff":null,"fclass_tlc":"Admin-0 country","fclass_us":null,"fclass_fr":null,"fclass_ru":null,"fclass_es":null,"fclass_cn":null,"fclass_tw":null,"fclass_in":null,"fclass_np":null,"fclass_pk":null,"fclass_de":null,"fclass_gb":null,"fclass_br":null,"fclass_il":null,"fclass_ps":null,"fclass_sa":null,"fclass_eg":null,"fclass_ma":null,"fclass_pt":null,"fclass_ar":null,"fclass_jp":null,"fclass_ko":null,"fclass_vn":null,"fclass_tr":null,"fclass_id":null,"fclass_pl":null,"fclass_gr":null,"fclass_it":null,"fclass_nl":null,"fclass_se":null,"fclass_bd":null,"fclass_ua":null,"filename":"MNE.geojson"},"geometry":{"type":"Polygon","coordinates":[[[19.1943359375,43.53330078125],[19.19160156250001,43.521044921874996],[19.19648437500001,43.485009765624994],[19.21875,43.449951171875],[19.298242187500023,43.413964843749994],[19.414648437500006,43.342822265624996],[19.551562500000017,43.212255859375],[19.61445312500001,43.1734375],[19.670996093750006,43.163964843749994],[19.781152343750023,43.109765625],[19.858007812500006,43.096533203125],[19.94404296875001,43.081640625],[20.167871093750023,42.968505859375],[20.268457031250023,42.935449218749994],[20.339941406250006,42.892871093749996],[20.34765625,42.852783203125],[20.344335937500006,42.827929687499996],[20.215136718750017,42.798828125],[20.19257812500001,42.754638671875],[20.129980468750006,42.759765625],[20.054296875,42.760058593749996],[20.02949218750001,42.73203125],[20.065722656250017,42.685839843749996],[20.089257812500023,42.63154296875],[20.0703125,42.557080078125],[20.06396484375,42.547265625],[20.045703125000017,42.54990234375],[19.9390625,42.506689453125],[19.859765625000023,42.486328125],[19.78828125000001,42.476171875],[19.754492187500006,42.496923828125],[19.73779296875,42.525146484375],[19.74072265625,42.60693359375],[19.727832031250017,42.634521484375],[19.703417968750017,42.64794921875],[19.65449218750001,42.628564453124994],[19.597460937500017,42.5654296875],[19.54453125,42.491943359375],[19.465136718750017,42.415380859375],[19.39960937500001,42.34189453125],[19.329003906250023,42.249267578125],[19.280664062500023,42.17255859375],[19.330859375000017,42.129296875],[19.361425781250006,42.069091796875],[19.352148437500006,42.0240234375],[19.361132812500017,41.99775390625],[19.345507812500017,41.918847656249994],[19.342382812500006,41.869091796875],[19.186425781250023,41.948632812499994],[19.12226562500001,42.060498046875],[18.89423828125001,42.249462890625],[18.632910156250006,42.378076171874994],[18.619042968750023,42.398388671875],[18.633398437500006,42.423144531249996],[18.645898437500023,42.442724609375],[18.591601562500017,42.444189453125],[18.553515625000017,42.428515625],[18.517480468750023,42.432910156249996],[18.476660156250006,42.481103515624994],[18.438085937500006,42.52294921875],[18.436328125000017,42.559716796874994],[18.453906250000017,42.564501953124996],[18.480078125,42.57919921875],[18.534960937500017,42.6201171875],[18.5458984375,42.6416015625],[18.543261718750017,42.674169921875],[18.46601562500001,42.777246093749994],[18.455078125,42.844091796875],[18.44384765625,42.96845703125],[18.46015625000001,42.997900390625],[18.48847656250001,43.012158203125],[18.623632812500006,43.027685546875],[18.621875,43.124609375],[18.629980468750006,43.153662109375],[18.656835937500006,43.1939453125],[18.674218750000023,43.230810546875],[18.74921875000001,43.283544921875],[18.85107421875,43.346337890624994],[18.895605468750006,43.348193359374996],[18.934667968750006,43.339453125],[18.97871093750001,43.285400390625],[19.026660156250017,43.292431640625],[19.03671875,43.357324218749994],[18.97382812500001,43.4423828125],[18.940234375000017,43.496728515624994],[18.95068359375,43.526660156249996],[18.97421875,43.542333984375],[19.0283203125,43.532519531249996],[19.080078125,43.517724609374994],[19.11279296875,43.527734375],[19.164355468750017,43.535449218749996],[19.1943359375,43.53330078125]]]}},{"type":"Feature","properties":{"featurecla":"Admin-0 country","scalerank":1,"labelrank":5,"sovereignt":"Bosnia and Herzegovina","sov_a3":"BIH","adm0_dif":0,"level":2,"type":"Sovereign country","tlc":1,"admin":"Bosnia and Herzegovina","adm0_a3":"BIH","geou_dif":0,"geounit":"Bosnia and Herzegovina","gu_a3":"BIH","su_dif":0,"subunit":"Bosnia and Herzegovina","su_a3":"BIH","brk_diff":0,"name":"Bosnia and Herzegovina","name_long":"Bosnia and Herzegovina","brk_a3":"BIH","brk_name":"Bosnia and Herzegovina","brk_group":null,"abbrev":"B.H.","postal":"BiH","formal_en":"Bosnia and Herzegovina","formal_fr":null,"name_ciawf":"Bosnia and Herzegovina","note_adm0":null,"note_brk":null,"name_sort":"Bosnia and Herzegovina","name_alt":null,"mapcolor7":1,"mapcolor8":1,"mapcolor9":1,"mapcolor13":2,"pop_est":3301000,"pop_rank":12,"pop_year":2019,"gdp_md":20164,"gdp_year":2019,"economy":"6. Developing region","income_grp":"3. Upper middle income","fips_10":"BK","iso_a2":"BA","iso_a2_eh":"BA","iso_a3":"BIH","iso_a3_eh":"BIH","iso_n3":"070","iso_n3_eh":"070","un_a3":"070","wb_a2":"BA","wb_a3":"BIH","woe_id":23424761,"woe_id_eh":23424761,"woe_note":"Exact WOE match as country","adm0_iso":"BIH","adm0_diff":null,"adm0_tlc":"BIH","adm0_a3_us":"BIH","adm0_a3_fr":"BIH","adm0_a3_ru":"BIH","adm0_a3_es":"BIH","adm0_a3_cn":"BIH","adm0_a3_tw":"BIH","adm0_a3_in":"BIH","adm0_a3_np":"BIH","adm0_a3_pk":"BIH","adm0_a3_de":"BIH","adm0_a3_gb":"BIH","adm0_a3_br":"BIH","adm0_a3_il":"BIH","adm0_a3_ps":"BIH","adm0_a3_sa":"BIH","adm0_a3_eg":"BIH","adm0_a3_ma":"BIH","adm0_a3_pt":"BIH","adm0_a3_ar":"BIH","adm0_a3_jp":"BIH","adm0_a3_ko":"BIH","adm0_a3_vn":"BIH","adm0_a3_tr":"BIH","adm0_a3_id":"BIH","adm0_a3_pl":"BIH","adm0_a3_gr":"BIH","adm0_a3_it":"BIH","adm0_a3_nl":"BIH","adm0_a3_se":"BIH","adm0_a3_bd":"BIH","adm0_a3_ua":"BIH","adm0_a3_un":-99,"adm0_a3_wb":-99,"continent":"Europe","region_un":"Europe","subregion":"Southern Europe","region_wb":"Europe & Central Asia","name_len":16,"long_len":22,"abbrev_len":4,"tiny":-99,"homepart":1,"min_zoom":0,"min_label":4.5,"max_label":6.8,"label_x":18.06841,"label_y":44.091051,"ne_id":1159320417,"wikidataid":"Q225","name_ar":"البوسنة والهرسك","name_bn":"বসনিয়া ও হার্জেগোভিনা","name_de":"Bosnien und Herzegowina","name_en":"Bosnia and Herzegovina","name_es":"Bosnia y Herzegovina","name_fa":"بوسنی و هرزگوین","name_fr":"Bosnie-Herzégovine","name_el":"Βοσνία και Ερζεγοβίνη","name_he":"בוסניה והרצגובינה","name_hi":"बॉस्निया और हर्ज़ेगोविना","name_hu":"Bosznia-Hercegovina","name_id":"Bosnia dan Herzegovina","name_it":"Bosnia ed Erzegovina","name_ja":"ボスニア・ヘルツェゴビナ","name_ko":"보스니아 헤르체고비나","name_nl":"Bosnië en Herzegovina","name_pl":"Bośnia i Hercegowina","name_pt":"Bósnia e Herzegovina","name_ru":"Босния и Герцеговина","name_sv":"Bosnien och Hercegovina","name_tr":"Bosna-Hersek","name_uk":"Боснія і Герцеговина","name_ur":"بوسنیا و ہرزیگووینا","name_vi":"Bosna và Hercegovina","name_zh":"波斯尼亚和黑塞哥维那","name_zht":"波士尼亞與赫塞哥維納","fclass_iso":"Admin-0 country","tlc_diff":null,"fclass_tlc":"Admin-0 country","fclass_us":null,"fclass_fr":null,"fclass_ru":null,"fclass_es":null,"fclass_cn":null,"fclass_tw":null,"fclass_in":null,"fclass_np":null,"fclass_pk":null,"fclass_de":null,"fclass_gb":null,"fclass_br":null,"fclass_il":null,"fclass_ps":null,"fclass_sa":null,"fclass_eg":null,"fclass_ma":null,"fclass_pt":null,"fclass_ar":null,"fclass_jp":null,"fclass_ko":null,"fclass_vn":null,"fclass_tr":null,"fclass_id":null,"fclass_pl":null,"fclass_gr":null,"fclass_it":null,"fclass_nl":null,"fclass_se":null,"fclass_bd":null,"fclass_ua":null,"filename":"BIH.geojson"},"geometry":{"type":"Polygon","coordinates":[[[19.3486328125,44.880908203124996],[19.356835937500023,44.858544921874994],[19.33447265625,44.780664062499994],[19.291894531250023,44.69677734375],[19.22314453125,44.6095703125],[19.1513671875,44.52734375],[19.132421875,44.483789062499994],[19.127343750000023,44.41455078125],[19.118457031250017,44.3599609375],[19.128320312500023,44.3302734375],[19.15185546875,44.302539062499996],[19.231542968750006,44.280566406249996],[19.3388671875,44.225830078125],[19.43017578125,44.1544921875],[19.547167968750017,44.073486328125],[19.583789062500017,44.04345703125],[19.58369140625001,44.011083984375],[19.54951171875001,43.987109375],[19.44941406250001,43.97802734375],[19.34521484375,43.985107421875],[19.305273437500006,43.993359375],[19.26806640625,43.983447265624996],[19.245019531250023,43.9650390625],[19.257226562500023,43.943310546875],[19.364062500000017,43.844775390624996],[19.488183593750023,43.703564453125],[19.4951171875,43.642871093749996],[19.47998046875,43.595166015625],[19.451269531250006,43.562060546874996],[19.39960937500001,43.567578125],[19.3603515625,43.59345703125],[19.30078125,43.591796875],[19.254492187500006,43.584375],[19.1943359375,43.53330078125],[19.164355468750017,43.535449218749996],[19.11279296875,43.527734375],[19.080078125,43.517724609374994],[19.0283203125,43.532519531249996],[18.97421875,43.542333984375],[18.95068359375,43.526660156249996],[18.940234375000017,43.496728515624994],[18.97382812500001,43.4423828125],[19.03671875,43.357324218749994],[19.026660156250017,43.292431640625],[18.97871093750001,43.285400390625],[18.934667968750006,43.339453125],[18.895605468750006,43.348193359374996],[18.85107421875,43.346337890624994],[18.74921875000001,43.283544921875],[18.674218750000023,43.230810546875],[18.656835937500006,43.1939453125],[18.629980468750006,43.153662109375],[18.621875,43.124609375],[18.623632812500006,43.027685546875],[18.48847656250001,43.012158203125],[18.46015625000001,42.997900390625],[18.44384765625,42.96845703125],[18.455078125,42.844091796875],[18.46601562500001,42.777246093749994],[18.543261718750017,42.674169921875],[18.5458984375,42.6416015625],[18.534960937500017,42.6201171875],[18.480078125,42.57919921875],[18.453906250000017,42.564501953124996],[18.436328125000017,42.559716796874994],[18.346582031250023,42.586669921875],[18.304003906250017,42.599414062499996],[18.123925781250023,42.690576171874994],[18.04453125,42.741259765624996],[17.918847656250023,42.807421875],[17.84130859375,42.845068359375],[17.80195312500001,42.902246093749994],[17.740234375,42.915478515625],[17.667578125,42.897119140624994],[17.58515625000001,42.938378906249994],[17.643457031250023,42.959765625],[17.6578125,42.980078125],[17.650488281250006,43.006591796875],[17.624804687500017,43.042773437499996],[17.402246093750023,43.19892578125],[17.293066406250006,43.305615234375],[17.275292968750023,43.34384765625],[17.273828125000023,43.445751953125],[17.248046875,43.47021484375],[17.084570312500006,43.516552734375],[16.90185546875,43.6490234375],[16.713476562500006,43.77880859375],[16.68769531250001,43.8150390625],[16.59052734375001,43.91318359375],[16.472070312500023,44.002587890624994],[16.377539062500006,44.059619140624996],[16.300097656250017,44.12451171875],[16.214257812500023,44.215136718749996],[16.169824218750023,44.352001953125],[16.130273437500023,44.47373046875],[16.103417968750023,44.52099609375],[16.04902343750001,44.53759765625],[15.880078125000011,44.681933593749996],[15.736621093750017,44.7658203125],[15.737988281250011,44.856396484375],[15.761523437500017,45.00751953125],[15.7880859375,45.178955078125],[15.822851562500006,45.202783203124994],[15.88828125,45.215722656249994],[15.963183593750017,45.210791015625],[16.0283203125,45.189599609374994],[16.157324218750006,45.072216796875],[16.231054687500006,45.026611328125],[16.293359375000023,45.008837890624996],[16.365039062500017,45.058349609375],[16.453515625000023,45.162011718749994],[16.530664062500023,45.216699218749994],[16.790820312500017,45.196875],[16.91865234375001,45.2765625],[17.125390625000023,45.171777343749994],[17.21064453125001,45.156054687499996],[17.258691406250023,45.170556640624994],[17.324121093750023,45.163964843749994],[17.469140625000023,45.13330078125],[17.50263671875001,45.120361328125],[17.546289062500023,45.12255859375],[17.65351562500001,45.163476562499994],[17.69013671875001,45.1583984375],[17.812792968750017,45.078125],[17.874414062500023,45.07724609375],[17.948632812500023,45.111865234374996],[17.99628906250001,45.141796875],[18.13720703125,45.119384765625],[18.21796875000001,45.13291015625],[18.284960937500017,45.13427734375],[18.35761718750001,45.120556640625],[18.423925781250006,45.102001953125],[18.48828125,45.085839843749994],[18.66259765625,45.077441406249996],[18.74609375,45.026513671874994],[18.779394531250006,44.97724609375],[18.780175781250023,44.947216796875],[18.788378906250017,44.914892578125],[18.83642578125,44.883251953125],[18.941308593750023,44.865185546875],[19.007128906250017,44.869189453124996],[19.042089843750006,44.871337890625],[19.13154296875001,44.899609375],[19.23681640625,44.9142578125],[19.31269531250001,44.8974609375],[19.3486328125,44.880908203124996]]]}},{"type":"Feature","properties":{"featurecla":"Admin-0 country","scalerank":1,"labelrank":6,"sovereignt":"Croatia","sov_a3":"HRV","adm0_dif":0,"level":2,"type":"Sovereign country","tlc":1,"admin":"Croatia","adm0_a3":"HRV","geou_dif":0,"geounit":"Croatia","gu_a3":"HRV","su_dif":0,"subunit":"Croatia","su_a3":"HRV","brk_diff":0,"name":"Croatia","name_long":"Croatia","brk_a3":"HRV","brk_name":"Croatia","brk_group":null,"abbrev":"Cro.","postal":"HR","formal_en":"Republic of Croatia","formal_fr":null,"name_ciawf":"Croatia","note_adm0":null,"note_brk":null,"name_sort":"Croatia","name_alt":null,"mapcolor7":5,"mapcolor8":4,"mapcolor9":5,"mapcolor13":1,"pop_est":4067500,"pop_rank":12,"pop_year":2019,"gdp_md":60752,"gdp_year":2019,"economy":"2. Developed region: nonG7","income_grp":"2. High income: nonOECD","fips_10":"HR","iso_a2":"HR","iso_a2_eh":"HR","iso_a3":"HRV","iso_a3_eh":"HRV","iso_n3":191,"iso_n3_eh":191,"un_a3":191,"wb_a2":"HR","wb_a3":"HRV","woe_id":23424843,"woe_id_eh":23424843,"woe_note":"Exact WOE match as country","adm0_iso":"HRV","adm0_diff":null,"adm0_tlc":"HRV","adm0_a3_us":"HRV","adm0_a3_fr":"HRV","adm0_a3_ru":"HRV","adm0_a3_es":"HRV","adm0_a3_cn":"HRV","adm0_a3_tw":"HRV","adm0_a3_in":"HRV","adm0_a3_np":"HRV","adm0_a3_pk":"HRV","adm0_a3_de":"HRV","adm0_a3_gb":"HRV","adm0_a3_br":"HRV","adm0_a3_il":"HRV","adm0_a3_ps":"HRV","adm0_a3_sa":"HRV","adm0_a3_eg":"HRV","adm0_a3_ma":"HRV","adm0_a3_pt":"HRV","adm0_a3_ar":"HRV","adm0_a3_jp":"HRV","adm0_a3_ko":"HRV","adm0_a3_vn":"HRV","adm0_a3_tr":"HRV","adm0_a3_id":"HRV","adm0_a3_pl":"HRV","adm0_a3_gr":"HRV","adm0_a3_it":"HRV","adm0_a3_nl":"HRV","adm0_a3_se":"HRV","adm0_a3_bd":"HRV","adm0_a3_ua":"HRV","adm0_a3_un":-99,"adm0_a3_wb":-99,"continent":"Europe","region_un":"Europe","subregion":"Southern Europe","region_wb":"Europe & Central Asia","name_len":7,"long_len":7,"abbrev_len":4,"tiny":-99,"homepart":1,"min_zoom":0,"min_label":4,"max_label":9,"label_x":16.37241,"label_y":45.805799,"ne_id":1159320833,"wikidataid":"Q224","name_ar":"كرواتيا","name_bn":"ক্রোয়েশিয়া","name_de":"Kroatien","name_en":"Croatia","name_es":"Croacia","name_fa":"کرواسی","name_fr":"Croatie","name_el":"Κροατία","name_he":"קרואטיה","name_hi":"क्रोएशिया","name_hu":"Horvátország","name_id":"Kroasia","name_it":"Croazia","name_ja":"クロアチア","name_ko":"크로아티아","name_nl":"Kroatië","name_pl":"Chorwacja","name_pt":"Croácia","name_ru":"Хорватия","name_sv":"Kroatien","name_tr":"Hırvatistan","name_uk":"Хорватія","name_ur":"کروشیا","name_vi":"Croatia","name_zh":"克罗地亚","name_zht":"克羅地亞","fclass_iso":"Admin-0 country","tlc_diff":null,"fclass_tlc":"Admin-0 country","fclass_us":null,"fclass_fr":null,"fclass_ru":null,"fclass_es":null,"fclass_cn":null,"fclass_tw":null,"fclass_in":null,"fclass_np":null,"fclass_pk":null,"fclass_de":null,"fclass_gb":null,"fclass_br":null,"fclass_il":null,"fclass_ps":null,"fclass_sa":null,"fclass_eg":null,"fclass_ma":null,"fclass_pt":null,"fclass_ar":null,"fclass_jp":null,"fclass_ko":null,"fclass_vn":null,"fclass_tr":null,"fclass_id":null,"fclass_pl":null,"fclass_gr":null,"fclass_it":null,"fclass_nl":null,"fclass_se":null,"fclass_bd":null,"fclass_ua":null,"filename":"HRV.geojson"},"geometry":{"type":"MultiPolygon","coordinates":[[[[13.577929687500017,45.516894531249996],[13.615234375,45.4767578125],[13.878710937500017,45.428369140624994],[13.935644531250006,45.4498046875],[13.970117187500023,45.4826171875],[13.9703125,45.503369140625],[13.992773437500006,45.509423828124994],[14.085546875,45.477832031249996],[14.161230468750006,45.48515625],[14.283007812500017,45.486621093749996],[14.369921875000017,45.4814453125],[14.42734375,45.505761718749994],[14.505175781250017,45.59521484375],[14.533984375000017,45.645263671875],[14.56884765625,45.6572265625],[14.591796875,45.651269531249994],[14.608593750000011,45.610107421875],[14.649511718750006,45.571484375],[14.733593750000011,45.50849609375],[14.793066406250006,45.47822265625],[14.847070312500023,45.467333984374996],[14.9,45.49267578125],[14.95458984375,45.499902343749994],[15.110449218750006,45.45078125],[15.242089843750023,45.44140625],[15.339453125,45.467041015625],[15.32666015625,45.502294921875],[15.291210937500011,45.541552734374996],[15.283593750000023,45.5796875],[15.290136718750006,45.612646484375],[15.35693359375,45.6455078125],[15.353710937500011,45.659912109375],[15.27294921875,45.717724609375],[15.277050781250011,45.7326171875],[15.4541015625,45.797607421875],[15.624804687500017,45.834033203124996],[15.652148437500017,45.862158203125],[15.668066406250006,45.904443359374994],[15.675585937500017,45.983691406249996],[15.666210937500011,46.048486328124994],[15.596875,46.109228515625],[15.592578125000017,46.139990234375],[15.608984375,46.171923828124996],[15.635937500000011,46.200732421874996],[15.704199218750006,46.213232421875],[15.784277343750006,46.233984375],[15.847558593750023,46.257861328124996],[15.933300781250011,46.277636718749996],[16.00068359375001,46.30537109375],[16.066503906250006,46.371337890625],[16.1064453125,46.382226562499994],[16.227441406250023,46.372851562499996],[16.253320312500023,46.389111328125],[16.236718750000023,46.483837890625],[16.258398437500006,46.50791015625],[16.301171875000023,46.521386718749994],[16.321191406250023,46.534619140625],[16.427636718750023,46.5244140625],[16.516210937500006,46.499902343749994],[16.569921875,46.485009765624994],[16.748046875,46.41640625],[16.871484375000023,46.339306640625],[16.93994140625,46.253662109375],[17.03271484375,46.187304687499996],[17.14960937500001,46.14033203125],[17.2421875,46.076611328125],[17.310644531250006,45.996142578124996],[17.406347656250006,45.951074218749994],[17.529199218750023,45.941308593749994],[17.60703125,45.91376953125],[17.6396484375,45.868359375],[17.706445312500023,45.82724609375],[17.80712890625,45.790429687499994],[17.9638671875,45.770263671875],[18.263964843750017,45.765478515625],[18.290625,45.764453125],[18.358300781250023,45.75302734375],[18.437304687500017,45.767333984375],[18.533593750000023,45.796142578125],[18.56464843750001,45.81328125],[18.666015625,45.907470703125],[18.721777343750006,45.899365234375],[18.8330078125,45.91083984375],[18.900292968750023,45.93173828125],[18.905371093750006,45.93173828125],[18.90107421875001,45.907617187499994],[18.8935546875,45.865527343749996],[18.83906250000001,45.835742187499996],[18.89453125,45.76708984375],[18.947265625,45.655810546874996],[18.917871093750023,45.600830078125],[18.953710937500006,45.558007812499994],[19.055078125000023,45.527246093749994],[19.064257812500017,45.514990234375],[19.033300781250006,45.502197265625],[19.007617187500017,45.4658203125],[19.004687500000017,45.39951171875],[19.093066406250017,45.3369140625],[19.272851562500023,45.277978515624994],[19.33027343750001,45.26806640625],[19.35224609375001,45.245410156249996],[19.38232421875,45.230615234374994],[19.4,45.2125],[19.400976562500006,45.1890625],[19.388085937500023,45.172998046874994],[19.303027343750017,45.167285156249996],[19.205957031250023,45.167773437499996],[19.13691406250001,45.196240234375],[19.130761718750023,45.17548828125],[19.129687500000017,45.151708984375],[19.062890625000023,45.13720703125],[19.1,44.973779296874994],[19.085253906250017,44.9267578125],[19.060546875,44.910986328125],[19.03759765625,44.917529296874996],[19.009570312500017,44.919384765625],[18.995507812500023,44.90400390625],[19.007128906250017,44.869189453124996],[18.941308593750023,44.865185546875],[18.83642578125,44.883251953125],[18.788378906250017,44.914892578125],[18.780175781250023,44.947216796875],[18.779394531250006,44.97724609375],[18.74609375,45.026513671874994],[18.66259765625,45.077441406249996],[18.48828125,45.085839843749994],[18.423925781250006,45.102001953125],[18.35761718750001,45.120556640625],[18.284960937500017,45.13427734375],[18.21796875000001,45.13291015625],[18.13720703125,45.119384765625],[17.99628906250001,45.141796875],[17.948632812500023,45.111865234374996],[17.874414062500023,45.07724609375],[17.812792968750017,45.078125],[17.69013671875001,45.1583984375],[17.65351562500001,45.163476562499994],[17.546289062500023,45.12255859375],[17.50263671875001,45.120361328125],[17.469140625000023,45.13330078125],[17.324121093750023,45.163964843749994],[17.258691406250023,45.170556640624994],[17.21064453125001,45.156054687499996],[17.125390625000023,45.171777343749994],[16.91865234375001,45.2765625],[16.790820312500017,45.196875],[16.530664062500023,45.216699218749994],[16.453515625000023,45.162011718749994],[16.365039062500017,45.058349609375],[16.293359375000023,45.008837890624996],[16.231054687500006,45.026611328125],[16.157324218750006,45.072216796875],[16.0283203125,45.189599609374994],[15.963183593750017,45.210791015625],[15.88828125,45.215722656249994],[15.822851562500006,45.202783203124994],[15.7880859375,45.178955078125],[15.761523437500017,45.00751953125],[15.737988281250011,44.856396484375],[15.736621093750017,44.7658203125],[15.880078125000011,44.681933593749996],[16.04902343750001,44.53759765625],[16.103417968750023,44.52099609375],[16.130273437500023,44.47373046875],[16.169824218750023,44.352001953125],[16.214257812500023,44.215136718749996],[16.300097656250017,44.12451171875],[16.377539062500006,44.059619140624996],[16.472070312500023,44.002587890624994],[16.59052734375001,43.91318359375],[16.68769531250001,43.8150390625],[16.713476562500006,43.77880859375],[16.90185546875,43.6490234375],[17.084570312500006,43.516552734375],[17.248046875,43.47021484375],[17.273828125000023,43.445751953125],[17.275292968750023,43.34384765625],[17.293066406250006,43.305615234375],[17.402246093750023,43.19892578125],[17.624804687500017,43.042773437499996],[17.650488281250006,43.006591796875],[17.6578125,42.980078125],[17.643457031250023,42.959765625],[17.58515625000001,42.938378906249994],[17.53730468750001,42.962255859375],[17.329882812500017,43.114892578124994],[17.12939453125,43.2111328125],[16.903125,43.392431640625],[16.60029296875001,43.4640625],[16.393945312500023,43.543359375],[16.268945312500023,43.53125],[16.13105468750001,43.506298828125],[16.045996093750006,43.505517578124994],[15.985546875000011,43.519775390625],[15.942578125000011,43.5689453125],[15.949121093750023,43.606982421874996],[15.941503906250006,43.656640625],[15.820605468750017,43.7359375],[15.655664062500023,43.811279296875],[15.499414062500023,43.9087890625],[15.185839843750017,44.172119140625],[15.122949218750023,44.256787109375],[15.184667968750006,44.272900390625],[15.231347656250023,44.271435546875],[15.284277343750006,44.288818359375],[15.369726562500006,44.2892578125],[15.470996093750017,44.27197265625],[15.38134765625,44.328271484374994],[15.269824218750017,44.38349609375],[14.981347656250023,44.602929687499994],[14.895214843750011,44.706591796874996],[14.88525390625,44.818261718749994],[14.906542968750017,44.97138671875],[14.854589843750006,45.081005859375],[14.632031250000011,45.222900390625],[14.550488281250011,45.297705078125],[14.386132812500023,45.342138671875],[14.312695312500011,45.337792968749994],[14.2685546875,45.282519531249996],[14.236328125,45.15966796875],[14.090625,44.997607421874996],[14.0419921875,44.927197265625],[13.9658203125,44.83564453125],[13.899804687500023,44.829345703125],[13.860742187500023,44.83740234375],[13.742480468750017,44.991503906249996],[13.629296875000023,45.108203125],[13.613476562500011,45.163427734375],[13.603320312500017,45.231396484375],[13.5171875,45.481787109375],[13.577929687500017,45.516894531249996]]],[[[16.650683593750017,42.99658203125],[16.835546875,42.968652343749994],[16.971093750000023,42.981494140624996],[17.093652343750023,42.96435546875],[17.169824218750023,42.9326171875],[17.188281250000017,42.917041015624996],[17.08935546875,42.914892578125],[16.9775390625,42.927783203124996],[16.850683593750006,42.8955078125],[16.738867187500006,42.912744140624994],[16.696386718750006,42.93369140625],[16.666308593750017,42.959912109375],[16.650683593750017,42.99658203125]]],[[[17.19404296875001,43.12578125],[17.124121093750006,43.1154296875],[16.67919921875,43.12314453125],[16.5498046875,43.143896484375],[16.405859375,43.19736328125],[16.37646484375,43.213769531249994],[16.521386718750023,43.229248046875],[16.65595703125001,43.213769531249994],[16.697265625,43.174951171874994],[17.061132812500006,43.143896484375],[17.19404296875001,43.12578125]]],[[[16.785253906250006,43.270654296874994],[16.62744140625,43.26806640625],[16.490332031250006,43.286181640624996],[16.423144531250017,43.317236328125],[16.428125,43.343408203124994],[16.44892578125001,43.387060546875],[16.6015625,43.381884765624996],[16.834375,43.350830078125],[16.89130859375001,43.3146484375],[16.873632812500006,43.29794921875],[16.785253906250006,43.270654296874994]]],[[[15.231054687500006,44.062304687499996],[15.246679687500006,44.02705078125],[15.121875,44.093310546874996],[15.074609375000023,44.137841796874994],[15.065820312500023,44.157666015625],[15.231054687500006,44.062304687499996]]],[[[14.810253906250011,44.97705078125],[14.68701171875,44.955615234374996],[14.628320312500023,44.993945312499996],[14.612988281250011,45.025439453124996],[14.51171875,45.035400390625],[14.450390625000011,45.07919921875],[14.437890625000023,45.0986328125],[14.524609375000011,45.146826171875],[14.571093750000017,45.224755859374994],[14.629980468750006,45.178027343749996],[14.701171875,45.0900390625],[14.739160156250023,45.065478515624996],[14.810253906250011,44.97705078125]]],[[[14.831445312500023,44.758935546874994],[14.856640625000011,44.71484375],[14.7625,44.754638671875],[14.67822265625,44.769873046875],[14.660351562500011,44.7998046875],[14.672460937500006,44.824365234374994],[14.690527343750006,44.84814453125],[14.754199218750017,44.84482421875],[14.763769531250006,44.82138671875],[14.831445312500023,44.758935546874994]]],[[[15.1884765625,44.335742187499996],[15.16259765625,44.3091796875],[15.097949218750017,44.358154296875],[15.03857421875,44.393017578125],[14.99609375,44.434326171875],[14.912792968750011,44.48583984375],[14.884667968750023,44.544726562499996],[14.760449218750011,44.66474609375],[14.741894531250011,44.69736328125],[14.803808593750006,44.648681640625],[14.855371093750023,44.61826171875],[14.898046875,44.61083984375],[15.006445312500006,44.534228515624996],[15.112988281250011,44.4357421875],[15.239941406250011,44.3501953125],[15.213574218750011,44.347558593749994],[15.1884765625,44.335742187499996]]],[[[15.188769531250017,43.92236328125],[15.203027343750023,43.90771484375],[15.20166015625,43.897753906249996],[15.149804687500023,43.91181640625],[15.135839843750006,43.907275390624996],[14.891308593750011,44.125537109374996],[14.865039062500017,44.16796875],[14.952539062500023,44.1171875],[15.188769531250017,43.92236328125]]],[[[15.371386718750017,43.973828125],[15.437207031250011,43.89951171875],[15.374218750000011,43.914794921875],[15.30859375,43.960791015625],[15.27001953125,44.0107421875],[15.371386718750017,43.973828125]]],[[[14.488085937500017,44.660058593749994],[14.480371093750023,44.621240234374994],[14.41953125,44.6703125],[14.388867187500011,44.75830078125],[14.312402343750023,44.900390625],[14.302539062500017,44.9404296875],[14.342187500000023,44.979931640625],[14.340039062500011,45.019970703125],[14.285839843750011,45.14462890625],[14.33125,45.164990234375],[14.358203125000017,45.167431640625],[14.369140625,45.080957031249994],[14.39375,45.03125],[14.467382812500006,44.97021484375],[14.452539062500023,44.869189453124996],[14.467578125000017,44.725341796875],[14.482519531250006,44.693359375],[14.488085937500017,44.660058593749994]]],[[[17.607812500000023,42.76904296875],[17.744238281250006,42.700341796874994],[17.344140625000023,42.790380859375],[17.389550781250023,42.798632812499996],[17.431933593750017,42.800390625],[17.607812500000023,42.76904296875]]],[[[18.436328125000017,42.559716796874994],[18.438085937500006,42.52294921875],[18.476660156250006,42.481103515624994],[18.517480468750023,42.432910156249996],[18.3330078125,42.527880859374996],[18.16064453125,42.634033203125],[17.823828125,42.797412109374996],[17.5849609375,42.837158203125],[17.258203125000023,42.96845703125],[17.04541015625,43.014892578125],[17.12646484375,43.0255859375],[17.219824218750006,43.02587890625],[17.7236328125,42.85068359375],[17.667578125,42.897119140624994],[17.740234375,42.915478515625],[17.80195312500001,42.902246093749994],[17.84130859375,42.845068359375],[17.918847656250023,42.807421875],[18.04453125,42.741259765624996],[18.123925781250023,42.690576171874994],[18.304003906250017,42.599414062499996],[18.346582031250023,42.586669921875],[18.436328125000017,42.559716796874994]]]]}},{"type":"Feature","properties":{"featurecla":"Admin-0 country","scalerank":1,"labelrank":6,"sovereignt":"Slovenia","sov_a3":"SVN","adm0_dif":0,"level":2,"type":"Sovereign country","tlc":1,"admin":"Slovenia","adm0_a3":"SVN","geou_dif":0,"geounit":"Slovenia","gu_a3":"SVN","su_dif":0,"subunit":"Slovenia","su_a3":"SVN","brk_diff":0,"name":"Slovenia","name_long":"Slovenia","brk_a3":"SVN","brk_name":"Slovenia","brk_group":null,"abbrev":"Slo.","postal":"SLO","formal_en":"Republic of Slovenia","formal_fr":null,"name_ciawf":"Slovenia","note_adm0":null,"note_brk":null,"name_sort":"Slovenia","name_alt":null,"mapcolor7":2,"mapcolor8":3,"mapcolor9":2,"mapcolor13":12,"pop_est":2087946,"pop_rank":12,"pop_year":2019,"gdp_md":54174,"gdp_year":2019,"economy":"2. Developed region: nonG7","income_grp":"1. High income: OECD","fips_10":"SI","iso_a2":"SI","iso_a2_eh":"SI","iso_a3":"SVN","iso_a3_eh":"SVN","iso_n3":705,"iso_n3_eh":705,"un_a3":705,"wb_a2":"SI","wb_a3":"SVN","woe_id":23424945,"woe_id_eh":23424945,"woe_note":"Exact WOE match as country","adm0_iso":"SVN","adm0_diff":null,"adm0_tlc":"SVN","adm0_a3_us":"SVN","adm0_a3_fr":"SVN","adm0_a3_ru":"SVN","adm0_a3_es":"SVN","adm0_a3_cn":"SVN","adm0_a3_tw":"SVN","adm0_a3_in":"SVN","adm0_a3_np":"SVN","adm0_a3_pk":"SVN","adm0_a3_de":"SVN","adm0_a3_gb":"SVN","adm0_a3_br":"SVN","adm0_a3_il":"SVN","adm0_a3_ps":"SVN","adm0_a3_sa":"SVN","adm0_a3_eg":"SVN","adm0_a3_ma":"SVN","adm0_a3_pt":"SVN","adm0_a3_ar":"SVN","adm0_a3_jp":"SVN","adm0_a3_ko":"SVN","adm0_a3_vn":"SVN","adm0_a3_tr":"SVN","adm0_a3_id":"SVN","adm0_a3_pl":"SVN","adm0_a3_gr":"SVN","adm0_a3_it":"SVN","adm0_a3_nl":"SVN","adm0_a3_se":"SVN","adm0_a3_bd":"SVN","adm0_a3_ua":"SVN","adm0_a3_un":-99,"adm0_a3_wb":-99,"continent":"Europe","region_un":"Europe","subregion":"Southern Europe","region_wb":"Europe & Central Asia","name_len":8,"long_len":8,"abbrev_len":4,"tiny":-99,"homepart":1,"min_zoom":0,"min_label":5,"max_label":10,"label_x":14.915312,"label_y":46.06076,"ne_id":1159321285,"wikidataid":"Q215","name_ar":"سلوفينيا","name_bn":"স্লোভেনিয়া","name_de":"Slowenien","name_en":"Slovenia","name_es":"Eslovenia","name_fa":"اسلوونی","name_fr":"Slovénie","name_el":"Σλοβενία","name_he":"סלובניה","name_hi":"स्लोवेनिया","name_hu":"Szlovénia","name_id":"Slovenia","name_it":"Slovenia","name_ja":"スロベニア","name_ko":"슬로베니아","name_nl":"Slovenië","name_pl":"Słowenia","name_pt":"Eslovénia","name_ru":"Словения","name_sv":"Slovenien","name_tr":"Slovenya","name_uk":"Словенія","name_ur":"سلووینیا","name_vi":"Slovenia","name_zh":"斯洛文尼亚","name_zht":"斯洛維尼亞","fclass_iso":"Admin-0 country","tlc_diff":null,"fclass_tlc":"Admin-0 country","fclass_us":null,"fclass_fr":null,"fclass_ru":null,"fclass_es":null,"fclass_cn":null,"fclass_tw":null,"fclass_in":null,"fclass_np":null,"fclass_pk":null,"fclass_de":null,"fclass_gb":null,"fclass_br":null,"fclass_il":null,"fclass_ps":null,"fclass_sa":null,"fclass_eg":null,"fclass_ma":null,"fclass_pt":null,"fclass_ar":null,"fclass_jp":null,"fclass_ko":null,"fclass_vn":null,"fclass_tr":null,"fclass_id":null,"fclass_pl":null,"fclass_gr":null,"fclass_it":null,"fclass_nl":null,"fclass_se":null,"fclass_bd":null,"fclass_ua":null,"filename":"SVN.geojson"},"geometry":{"type":"Polygon","coordinates":[[[16.516210937500006,46.499902343749994],[16.427636718750023,46.5244140625],[16.321191406250023,46.534619140625],[16.301171875000023,46.521386718749994],[16.258398437500006,46.50791015625],[16.236718750000023,46.483837890625],[16.253320312500023,46.389111328125],[16.227441406250023,46.372851562499996],[16.1064453125,46.382226562499994],[16.066503906250006,46.371337890625],[16.00068359375001,46.30537109375],[15.933300781250011,46.277636718749996],[15.847558593750023,46.257861328124996],[15.784277343750006,46.233984375],[15.704199218750006,46.213232421875],[15.635937500000011,46.200732421874996],[15.608984375,46.171923828124996],[15.592578125000017,46.139990234375],[15.596875,46.109228515625],[15.666210937500011,46.048486328124994],[15.675585937500017,45.983691406249996],[15.668066406250006,45.904443359374994],[15.652148437500017,45.862158203125],[15.624804687500017,45.834033203124996],[15.4541015625,45.797607421875],[15.277050781250011,45.7326171875],[15.27294921875,45.717724609375],[15.353710937500011,45.659912109375],[15.35693359375,45.6455078125],[15.290136718750006,45.612646484375],[15.283593750000023,45.5796875],[15.291210937500011,45.541552734374996],[15.32666015625,45.502294921875],[15.339453125,45.467041015625],[15.242089843750023,45.44140625],[15.110449218750006,45.45078125],[14.95458984375,45.499902343749994],[14.9,45.49267578125],[14.847070312500023,45.467333984374996],[14.793066406250006,45.47822265625],[14.733593750000011,45.50849609375],[14.649511718750006,45.571484375],[14.608593750000011,45.610107421875],[14.591796875,45.651269531249994],[14.56884765625,45.6572265625],[14.533984375000017,45.645263671875],[14.505175781250017,45.59521484375],[14.42734375,45.505761718749994],[14.369921875000017,45.4814453125],[14.283007812500017,45.486621093749996],[14.161230468750006,45.48515625],[14.085546875,45.477832031249996],[13.992773437500006,45.509423828124994],[13.9703125,45.503369140625],[13.970117187500023,45.4826171875],[13.935644531250006,45.4498046875],[13.878710937500017,45.428369140624994],[13.615234375,45.4767578125],[13.577929687500017,45.516894531249996],[13.637304687500006,45.5359375],[13.719824218750006,45.58759765625],[13.775976562500006,45.581982421875],[13.8447265625,45.59287109375],[13.874707031250011,45.61484375],[13.831152343750006,45.680419921875],[13.7216796875,45.761279296874996],[13.663476562500023,45.7919921875],[13.583398437500023,45.812353515625],[13.569628906250017,45.834130859374994],[13.613964843750011,45.961669921875],[13.6005859375,45.979785156249996],[13.509179687500023,45.973779296874994],[13.487695312500023,45.987109375],[13.480273437500017,46.009228515625],[13.486425781250006,46.03955078125],[13.548046875000011,46.089111328125],[13.616601562500023,46.133105468749996],[13.634960937500011,46.157763671874996],[13.632519531250011,46.177050781249996],[13.544726562500017,46.196582031249996],[13.491796875,46.216601562499996],[13.449804687500006,46.223535156249994],[13.420996093750006,46.212304687499994],[13.399609375000011,46.224951171875],[13.378222656250017,46.261621093749994],[13.399511718750006,46.317529296874994],[13.478515625,46.369189453124996],[13.563281250000017,46.415087890624996],[13.637109375000023,46.448535156249996],[13.6796875,46.462890625],[13.7,46.520263671875],[13.743945312500017,46.514306640624994],[13.831347656250017,46.51123046875],[13.928808593750006,46.498193359374994],[14.019628906250006,46.482177734375],[14.099511718750023,46.4619140625],[14.267285156250011,46.440722656249996],[14.419921875,46.4279296875],[14.465917968750006,46.41611328125],[14.503515625,46.417041015624996],[14.5498046875,46.399707031249996],[14.5771484375,46.412939453125],[14.596972656250017,46.436083984374996],[14.68017578125,46.463427734374996],[14.756738281250023,46.49912109375],[14.810546875,46.544580078124994],[14.840625,46.58046875],[14.893261718750011,46.605908203125],[14.949414062500011,46.613232421875],[15.000683593750011,46.6259765625],[15.216992187500011,46.64296875],[15.439257812500017,46.629638671875],[15.545312500000023,46.654638671875],[15.632617187500017,46.6984375],[15.76025390625,46.710742187499996],[15.766894531250017,46.711279296875],[15.957617187500006,46.677636718749994],[15.972265625,46.697216796875],[15.98046875,46.705859375],[15.976855468750017,46.8013671875],[16.037207031250006,46.84482421875],[16.093066406250017,46.86328125],[16.283593750000023,46.857275390625],[16.308496093750023,46.827978515625],[16.318457031250006,46.782519531249996],[16.33544921875,46.721630859375],[16.3671875,46.70478515625],[16.384570312500017,46.680810546874994],[16.38125,46.638671875],[16.41845703125,46.607226562499996],[16.505664062500017,46.5220703125],[16.516210937500006,46.499902343749994]]]}},{"type":"Feature","properties":{"featurecla":"Admin-0 country","scalerank":1,"labelrank":6,"sovereignt":"Macedonia","sov_a3":"MKD","adm0_dif":0,"level":2,"type":"Sovereign country","tlc":1,"admin":"Macedonia","adm0_a3":"MKD","geou_dif":0,"geounit":"Macedonia","gu_a3":"MKD","su_dif":0,"subunit":"Macedonia","su_a3":"MKD","brk_diff":0,"name":"Macedonia","name_long":"Macedonia","brk_a3":"MKD","brk_name":"Macedonia","brk_group":null,"abbrev":"Mac.","postal":"MK","formal_en":"Republic of Macedonia","formal_fr":null,"name_ciawf":"Macedonia","note_adm0":null,"note_brk":null,"name_sort":"Macedonia","name_alt":null,"mapcolor7":5,"mapcolor8":3,"mapcolor9":7,"mapcolor13":3,"pop_est":2083459,"pop_rank":12,"pop_year":2019,"gdp_md":12547,"gdp_year":2019,"economy":"6. Developing region","income_grp":"3. Upper middle income","fips_10":"MK","iso_a2":"MK","iso_a2_eh":"MK","iso_a3":"MKD","iso_a3_eh":"MKD","iso_n3":807,"iso_n3_eh":807,"un_a3":807,"wb_a2":"MK","wb_a3":"MKD","woe_id":23424890,"woe_id_eh":23424890,"woe_note":"Exact WOE match as country","adm0_iso":"MKD","adm0_diff":null,"adm0_tlc":"MKD","adm0_a3_us":"MKD","adm0_a3_fr":"MKD","adm0_a3_ru":"MKD","adm0_a3_es":"MKD","adm0_a3_cn":"MKD","adm0_a3_tw":"MKD","adm0_a3_in":"MKD","adm0_a3_np":"MKD","adm0_a3_pk":"MKD","adm0_a3_de":"MKD","adm0_a3_gb":"MKD","adm0_a3_br":"MKD","adm0_a3_il":"MKD","adm0_a3_ps":"MKD","adm0_a3_sa":"MKD","adm0_a3_eg":"MKD","adm0_a3_ma":"MKD","adm0_a3_pt":"MKD","adm0_a3_ar":"MKD","adm0_a3_jp":"MKD","adm0_a3_ko":"MKD","adm0_a3_vn":"MKD","adm0_a3_tr":"MKD","adm0_a3_id":"MKD","adm0_a3_pl":"MKD","adm0_a3_gr":"MKD","adm0_a3_it":"MKD","adm0_a3_nl":"MKD","adm0_a3_se":"MKD","adm0_a3_bd":"MKD","adm0_a3_ua":"MKD","adm0_a3_un":-99,"adm0_a3_wb":-99,"continent":"Europe","region_un":"Europe","subregion":"Southern Europe","region_wb":"Europe & Central Asia","name_len":15,"long_len":15,"abbrev_len":7,"tiny":-99,"homepart":1,"min_zoom":0,"min_label":5,"max_label":10,"label_x":21.555839,"label_y":41.558223,"ne_id":1159321061,"wikidataid":"Q221","name_ar":"مقدونيا الشمالية","name_bn":"উত্তর মেসিডোনিয়া","name_de":"Nordmazedonien","name_en":"North Macedonia","name_es":"Macedonia del Norte","name_fa":"مقدونیه شمالی","name_fr":"Macédoine du Nord","name_el":"Βόρεια Μακεδονία","name_he":"מקדוניה הצפונית","name_hi":"उत्तर मैसिडोनिया","name_hu":"Észak-Macedónia","name_id":"Republik Makedonia Utara","name_it":"Macedonia del Nord","name_ja":"北マケドニア","name_ko":"북마케도니아","name_nl":"Noord-Macedonië","name_pl":"Macedonia Północna","name_pt":"Macedónia do Norte","name_ru":"Северная Македония","name_sv":"Nordmakedonien","name_tr":"Kuzey Makedonya","name_uk":"Північна Македонія","name_ur":"شمالی مقدونیہ","name_vi":"Bắc Macedonia","name_zh":"北马其顿","name_zht":"北馬其頓","fclass_iso":"Admin-0 country","tlc_diff":null,"fclass_tlc":"Admin-0 country","fclass_us":null,"fclass_fr":null,"fclass_ru":null,"fclass_es":null,"fclass_cn":null,"fclass_tw":null,"fclass_in":null,"fclass_np":null,"fclass_pk":null,"fclass_de":null,"fclass_gb":null,"fclass_br":null,"fclass_il":null,"fclass_ps":null,"fclass_sa":null,"fclass_eg":null,"fclass_ma":null,"fclass_pt":null,"fclass_ar":null,"fclass_jp":null,"fclass_ko":null,"fclass_vn":null,"fclass_tr":null,"fclass_id":null,"fclass_pl":null,"fclass_gr":null,"fclass_it":null,"fclass_nl":null,"fclass_se":null,"fclass_bd":null,"fclass_ua":null,"filename":"MKD.geojson"},"geometry":{"type":"Polygon","coordinates":[[[21.5625,42.247509765625],[21.618261718750006,42.242138671875],[21.7392578125,42.267724609374994],[21.81464843750001,42.303125],[21.85302734375,42.308398437499996],[21.904101562500017,42.322070312499996],[21.9775390625,42.320068359375],[22.052050781250017,42.304638671875],[22.14667968750001,42.325],[22.23974609375,42.358154296875],[22.27705078125001,42.349853515625],[22.3173828125,42.321728515625],[22.344042968750017,42.31396484375],[22.49824218750001,42.165087890624996],[22.58271484375001,42.104833984375],[22.68232421875001,42.059130859374996],[22.79609375000001,42.025683593749996],[22.836816406250023,41.993603515625],[22.9091796875,41.835205078125],[22.943945312500006,41.77509765625],[22.991992187500017,41.757177734375],[23.00361328125001,41.73984375],[23.005664062500017,41.716943359374994],[22.951464843750017,41.605615234374994],[22.9296875,41.356103515624994],[22.916015625,41.336279296875],[22.859277343750023,41.337353515625],[22.78388671875001,41.331982421875],[22.75507812500001,41.312744140625],[22.72480468750001,41.178515625],[22.603613281250006,41.140185546874996],[22.493554687500023,41.118505859375],[22.400781250000023,41.123388671875],[22.237695312500023,41.155175781249994],[22.184472656250023,41.158642578125],[22.13886718750001,41.140527343749994],[21.99335937500001,41.13095703125],[21.929492187500017,41.107421875],[21.77949218750001,40.950439453125],[21.627539062500006,40.896337890625],[21.57578125,40.868945312499996],[21.45966796875001,40.903613281249996],[21.404101562500017,40.907177734375],[21.32373046875,40.867138671875],[21.147558593750006,40.863134765625],[21.1,40.85615234375],[20.964257812500023,40.849902343749996],[20.95859375,40.871533203125],[20.933496093750023,40.903125],[20.870214843750006,40.917919921875],[20.740820312500006,40.9052734375],[20.709277343750017,40.928369140624994],[20.656054687500017,41.061669921874994],[20.61445312500001,41.083056640624996],[20.56787109375,41.127832031249994],[20.48896484375001,41.272607421874994],[20.48701171875001,41.336083984374994],[20.49238281250001,41.39140625],[20.448632812500023,41.521289062499996],[20.4755859375,41.554101562499994],[20.516210937500006,41.574755859374996],[20.5166015625,41.62705078125],[20.505175781250017,41.706494140625],[20.553125,41.862353515624996],[20.566210937500017,41.873681640624994],[20.578515625000023,41.8662109375],[20.694921875,41.853808593749996],[20.725,41.87353515625],[20.744140625,41.904296875],[20.750390625000023,42.018359375],[20.778125,42.071044921875],[21.05976562500001,42.171289062499994],[21.142480468750023,42.175],[21.2060546875,42.128955078124996],[21.25634765625,42.099511718749994],[21.28662109375,42.100390625],[21.29755859375001,42.130078125],[21.33173828125001,42.187158203124994],[21.389550781250023,42.21982421875],[21.560839843750017,42.24765625],[21.5625,42.247509765625]]]}}]}